[{"OBJECT_NAME":"GEISAT PRECURSOR","OBJECT_ID":"2023-084C","EPOCH":"2026-03-09T22:20:25.833120","MEAN_MOTION":15.33054389,"ECCENTRICITY":0.00051675,"INCLINATION":97.6055,"RA_OF_ASC_NODE":206.8263,"ARG_OF_PERICENTER":345.1842,"MEAN_ANOMALY":14.9247,"EPHEMERIS_TYPE":0,"CLASSIFICATION_TYPE":"U","NORAD_CAT_ID":56934,"ELEMENT_SET_NO":999,"REV_AT_EPOCH":15231,"BSTAR":0.00033857167,"MEAN_MOTION_DOT":0.00010736,"MEAN_MOTION_DDOT":0},{"OBJECT_NAME":"STARLINK-35641","OBJECT_ID":"2025-240X","EPOCH":"2026-03-09T23:08:11.652000","MEAN_MOTION":15.30209821,"ECCENTRICITY":0.00018221,"INCLINATION":53.1609,"RA_OF_ASC_NODE":61.2978,"ARG_OF_PERICENTER":97.0418,"MEAN_ANOMALY":263.079,"EPHEMERIS_TYPE":0,"CLASSIFICATION_TYPE":"U","NORAD_CAT_ID":66167,"ELEMENT_SET_NO":999,"REV_AT_EPOCH":2203,"BSTAR":0.00088509312,"MEAN_MOTION_DOT":0.00025954,"MEAN_MOTION_DDOT":0}]
